{"fetched_at":"2026-03-29T16:36:15Z","count":15609,"tles":[{"name":"STARLINK-31733","line1":"1 59486U 24071C   26087.68051844  .00000819  00000+0  39273-4 0  9990","line2":"2 59486  42.9984 232.1802 0000502 261.3377  98.7417 15.27580427111116","category":"Starlink"}]}